LEMUR-2-AMANDA-SVANTE   
1 48269U 21034B   26068.77637527  .00030872  00000+0  11134-2 0  9996
2 48269  97.5829 144.8625 0002703 205.4721 154.6385 15.28469003265849
STARLINK-32279          
1 61003U 24158P   26068.38318052 -.00000789  00000+0 -14520-4 0  9993
2 61003  53.1609  67.0027 0001369  85.2754 274.8403 15.30186330 85605
